$$SOE
2461302.500000000, A.D. 2026-Sep-19 00:00:00.0000, 3.449479399169489E+08, -3.417648756186672E+08, -1.461359312547712E+07,
2461309.500000000, A.D. 2026-Sep-26 00:00:00.0000, 3.515347822828320E+08, -3.346436825089675E+08, -1.711580333379917E+07,
2461316.500000000, A.D. 2026-Oct-03 00:00:00.0000, 3.579726612812181E+08, -3.273806981819266E+08, -1.961075946866558E+07,
2461323.500000000, A.D. 2026-Oct-10 00:00:00.0000, 3.642587044206988E+08, -3.199788714962713E+08, -2.209739620606178E+07,
2461330.500000000, A.D. 2026-Oct-17 00:00:00.0000, 3.703900996059778E+08, -3.124412168717054E+08, -2.457464981855129E+07,
2461337.500000000, A.D. 2026-Oct-24 00:00:00.0000, 3.763640965575363E+08, -3.047708132106954E+08, -2.704145865851209E+07,
2461344.500000000, A.D. 2026-Oct-31 00:00:00.0000, 3.821780083010209E+08, -2.969708029449996E+08, -2.949676366593812E+07,
2461351.500000000, A.D. 2026-Nov-07 00:00:00.0000, 3.878292130635375E+08, -2.890443911323568E+08, -3.193950892545542E+07,
2461358.500000000, A.D. 2026-Nov-14 00:00:00.0000, 3.933151567769588E+08, -2.809948437155914E+08, -3.436864221796753E+07,
2461365.500000000, A.D. 2026-Nov-21 00:00:00.0000, 3.986333543761654E+08, -2.728254842631978E+08, -3.678311534456278E+07,
2461372.500000000, A.D. 2026-Nov-28 00:00:00.0000, 4.037813888923966E+08, -2.645396922004336E+08, -3.918188437649022E+07,
2461379.500000000, A.D. 2026-Dec-05 00:00:00.0000, 4.087569119587148E+08, -2.561409031866618E+08, -4.156391021621950E+07,
2461386.500000000, A.D. 2026-Dec-12 00:00:00.0000, 4.135576458912410E+08, -2.476326085273191E+08, -4.392815922982682E+07,
2461393.500000000, A.D. 2026-Dec-19 00:00:00.0000, 4.181813854582895E+08, -2.390183536144130E+08, -4.627360377650961E+07,
2461400.500000000, A.D. 2026-Dec-26 00:00:00.0000, 4.226259991940799E+08, -2.303017362642291E+08, -4.859922269258074E+07,
2461407.500000000, A.D. 2027-Jan-02 00:00:00.0000, 4.268894305315267E+08, -2.214864051438163E+08, -5.090400177035883E+07,
2461414.500000000, A.D. 2027-Jan-09 00:00:00.0000, 4.309696988693793E+08, -2.125760582668132E+08, -5.318693424059500E+07,
2461421.500000000, A.D. 2027-Jan-16 00:00:00.0000, 4.348649006069462E+08, -2.035744415507041E+08, -5.544702126057735E+07,
2461428.500000000, A.D. 2027-Jan-23 00:00:00.0000, 4.385732101897196E+08, -1.944853474761608E+08, -5.768327241503303E+07,
2461435.500000000, A.D. 2027-Jan-30 00:00:00.0000, 4.420928813502836E+08, -1.853126138970730E+08, -5.989470625059520E+07,
2461442.500000000, A.D. 2027-Feb-06 00:00:00.0000, 4.454222489658584E+08, -1.760601226613634E+08, -6.208035085460360E+07,
2461449.500000000, A.D. 2027-Feb-13 00:00:00.0000, 4.485597310702975E+08, -1.667317968230588E+08, -6.423924433609610E+07,
2461456.500000000, A.D. 2027-Feb-20 00:00:00.0000, 4.515038286558809E+08, -1.573315972383086E+08, -6.637043505689560E+07,
2461463.500000000, A.D. 2027-Feb-27 00:00:00.0000, 4.542531246584721E+08, -1.478635217610040E+08, -6.847298200340675E+07,
2461470.500000000, A.D. 2027-Mar-06 00:00:00.0000, 4.568062851410987E+08, -1.383316051157910E+08, -7.054595541846731E+07,
2461477.500000000, A.D. 2027-Mar-13 00:00:00.0000, 4.591620610743463E+08, -1.287399173991997E+08, -7.258843737873915E+07,
2461484.500000000, A.D. 2027-Mar-20 00:00:00.0000, 4.613192895835773E+08, -1.190925620443934E+08, -7.459952228213522E+07,
2461491.500000000, A.D. 2027-Mar-27 00:00:00.0000, 4.632768948643442E+08, -1.093936737995250E+08, -7.657831730852446E+07,
2461498.500000000, A.D. 2027-Apr-03 00:00:00.0000, 4.650338889682329E+08, -9.964741676845139E+07, -7.852394287604652E+07,
2461505.500000000, A.D. 2027-Apr-10 00:00:00.0000, 4.665893725198501E+08, -8.985798249179511E+07, -8.043553309659883E+07,
2461512.500000000, A.D. 2027-Apr-17 00:00:00.0000, 4.679425353866532E+08, -8.002958808390990E+07, -8.231223623355843E+07,
2461519.500000000, A.D. 2027-Apr-24 00:00:00.0000, 4.690926573803455E+08, -7.016647448956072E+07, -8.415321517395826E+07,
2461526.500000000, A.D. 2027-May-01 00:00:00.0000, 4.700391092881730E+08, -6.027290483441471E+07, -8.595764794001283E+07,
2461533.500000000, A.D. 2027-May-08 00:00:00.0000, 4.707813545393901E+08, -5.035316212224722E+07, -8.772472820635617E+07,
2461540.500000000, A.D. 2027-May-15 00:00:00.0000, 4.713189500089339E+08, -4.041154532609951E+07, -8.945366560716750E+07,
2461547.500000000, A.D. 2027-May-22 00:00:00.0000, 4.716515443943439E+08, -3.045236646678589E+07, -9.114368590122542E+07,
2461554.500000000, A.D. 2027-May-29 00:00:00.0000, 4.717788775196258E+08, -2.047995014883959E+07, -9.279403142183886E+07,
2461561.500000000, A.D. 2027-Jun-05 00:00:00.0000, 4.717007814484583E+08, -1.049863242204253E+07, -9.440396163578717E+07,
2461568.500000000, A.D. 2027-Jun-12 00:00:00.0000, 4.714171813992686E+08, -5.127585364590287E+05, -9.597275359141438E+07,
2461575.500000000, A.D. 2027-Jun-19 00:00:00.0000, 4.709280961323861E+08, 9.473319473135926E+06, -9.749970230194284E+07,
2461582.500000000, A.D. 2027-Jun-26 00:00:00.0000, 4.702336380896814E+08, 1.945524511033175E+07, -9.898412111100632E+07,
2461589.500000000, A.D. 2027-Jul-03 00:00:00.0000, 4.693340134191388E+08, 2.942865965383051E+07, -1.004253420516435E+08,
2461596.500000000, A.D. 2027-Jul-10 00:00:00.0000, 4.682295219209987E+08, 3.938920431454681E+07, -1.018227162009994E+08,
2461603.500000000, A.D. 2027-Jul-17 00:00:00.0000, 4.669205569514151E+08, 4.933252227234754E+07, -1.031756140367161E+08,
2461610.500000000, A.D. 2027-Jul-24 00:00:00.0000, 4.654076054396065E+08, 5.925426052774704E+07, -1.044834258139447E+08,
2461617.500000000, A.D. 2027-Jul-31 00:00:00.0000, 4.636912484288950E+08, 6.915007180200577E+07, -1.057455619807350E+08,
2461624.500000000, A.D. 2027-Aug-07 00:00:00.0000, 4.617721619391263E+08, 7.901561763608301E+07, -1.069614535182320E+08,
2461631.500000000, A.D. 2027-Aug-14 00:00:00.0000, 4.596511158493649E+08, 8.884657243511824E+07, -1.081305520148965E+08,
2461638.500000000, A.D. 2027-Aug-21 00:00:00.0000, 4.573289714210867E+08, 9.863862509276955E+07, -1.092523298068395E+08,
2461645.500000000, A.D. 2027-Aug-28 00:00:00.0000, 4.548066808926799E+08, 1.083874793958225E+08, -1.103262804004321E+08,
2461652.500000000, A.D. 2027-Sep-04 00:00:00.0000, 4.520852879628674E+08, 1.180888557097644E+08, -1.113519188638181E+08,
2461659.500000000, A.D. 2027-Sep-11 00:00:00.0000, 4.491659277677074E+08, 1.277384932828454E+08, -1.123287821133088E+08,
2461666.500000000, A.D. 2027-Sep-18 00:00:00.0000, 4.460498264847915E+08, 1.373321525170135E+08, -1.132564291601262E+08,
2461673.500000000, A.D. 2027-Sep-25 00:00:00.0000, 4.427383007938318E+08, 1.468656171265576E+08, -1.141344413448990E+08,
2461680.500000000, A.D. 2027-Oct-02 00:00:00.0000, 4.392327572689171E+08, 1.563346962105340E+08, -1.149624225645283E+08,
2461687.500000000, A.D. 2027-Oct-09 00:00:00.0000, 4.355346917251068E+08, 1.657352262330897E+08, -1.157399994937535E+08,
2461694.500000000, A.D. 2027-Oct-16 00:00:00.0000, 4.316456885828559E+08, 1.750630728555572E+08, -1.164668218115733E+08,
2461701.500000000, A.D. 2027-Oct-23 00:00:00.0000, 4.275674205106406E+08, 1.843141326132780E+08, -1.171425624567200E+08,
2461708.500000000, A.D. 2027-Oct-30 00:00:00.0000, 4.233016487204992E+08, 1.934843350456515E+08, -1.177669178963242E+08,
2461715.500000000, A.D. 2027-Nov-06 00:00:00.0000, 4.188502227519011E+08, 2.025696464063347E+08, -1.183396082080406E+08,
2461722.500000000, A.D. 2027-Nov-13 00:00:00.0000, 4.142150777590426E+08, 2.115660728781662E+08, -1.188603769632598E+08,
2461729.500000000, A.D. 2027-Nov-20 00:00:00.0000, 4.093982322064046E+08, 2.204696611064628E+08, -1.193289913572537E+08,
2461736.500000000, A.D. 2027-Nov-27 00:00:00.0000, 4.044017875911508E+08, 2.292764990127710E+08, -1.197452424924383E+08,
2461743.500000000, A.D. 2027-Dec-04 00:00:00.0000, 3.992279281688744E+08, 2.379827178014975E+08, -1.201089455541647E+08,
2461750.500000000, A.D. 2027-Dec-11 00:00:00.0000, 3.938789201330673E+08, 2.465844941944600E+08, -1.204199399073730E+08,
2461757.500000000, A.D. 2027-Dec-18 00:00:00.0000, 3.883571105245700E+08, 2.550780525531048E+08, -1.206780891671686E+08,
2461764.500000000, A.D. 2027-Dec-25 00:00:00.0000, 3.826649260242561E+08, 2.634596668849523E+08, -1.208832812575117E+08,
2461771.500000000, A.D. 2028-Jan-01 00:00:00.0000, 3.768048716716202E+08, 2.717256627474944E+08, -1.210354284606392E+08,
$$EOE